TIANMU-1 08             
1 57400U 23101B   26066.00237819  .00000346  00000+0  14775-4 0  9993
2 57400  97.2717 118.7901 0006380 134.2174 225.9592 15.29204229146020
STARLINK-30616          
1 58105U 23161J   26068.49283702  .00002036  00000+0  80880-4 0  9997
2 58105  53.1589 153.3388 0001094 105.5199 254.5922 15.30188143134569
